[{"CCSDS_OMM_VERS":"2.0","COMMENT":"GENERATED VIA SPACE-TRACK.ORG API","CREATION_DATE":"2021-10-02T03:59:35","ORIGINATOR":"18 SPCS","OBJECT_NAME":"TBA - TO BE ASSIGNED","OBJECT_ID":"","CENTER_NAME":"EARTH","REF_FRAME":"TEME","TIME_SYSTEM":"UTC","MEAN_ELEMENT_THEORY":"SGP4","EPOCH":"2021-10-01T21:29:54.999744","MEAN_MOTION":"12.95149552","ECCENTRICITY":"0.00289281","INCLINATION":"90.2766","RA_OF_ASC_NODE":"326.8337","ARG_OF_PERICENTER":"321.6232","MEAN_ANOMALY":"38.2829","EPHEMERIS_TYPE":"0","CLASSIFICATION_TYPE":"U","NORAD_CAT_ID":"270288","ELEMENT_SET_NO":"999","REV_AT_EPOCH":"7166","BSTAR":"-0.00031290499000","MEAN_MOTION_DOT":"-0.00000081","MEAN_MOTION_DDOT":"0.0000000000000","SEMIMAJOR_AXIS":"7659.291","PERIOD":"111.184","APOAPSIS":"1303.313","PERIAPSIS":"1258.999","OBJECT_TYPE":"TBA","RCS_SIZE":null,"COUNTRY_CODE":null,"LAUNCH_DATE":null,"SITE":null,"DECAY_DATE":null,"FILE":"3139397","GP_ID":"185950865","TLE_LINE0":"0 TBA - TO BE ASSIGNED","TLE_LINE1":"1 T0288U          21274.89577546 -.00000081  00000-0 -31290-3 0  9994","TLE_LINE2":"2 T0288  90.2766 326.8337 0028928 321.6232  38.2829 12.95149552 71665"},{"CCSDS_OMM_VERS":"2.0","COMMENT":"GENERATED VIA SPACE-TRACK.ORG API","CREATION_DATE":"2021-09-30T20:16:47","ORIGINATOR":"18 SPCS","OBJECT_NAME":"TBA - TO BE ASSIGNED","OBJECT_ID":"","CENTER_NAME":"EARTH","REF_FRAME":"TEME","TIME_SYSTEM":"UTC","MEAN_ELEMENT_THEORY":"SGP4","EPOCH":"2021-09-30T01:36:18.586656","MEAN_MOTION":"12.17952909","ECCENTRICITY":"0.01989599","INCLINATION":"82.4345","RA_OF_ASC_NODE":"180.3731","ARG_OF_PERICENTER":"349.5576","MEAN_ANOMALY":"10.1384","EPHEMERIS_TYPE":"0","CLASSIFICATION_TYPE":"U","NORAD_CAT_ID":"270287","ELEMENT_SET_NO":"999","REV_AT_EPOCH":"6607","BSTAR":"0.08900100000000","MEAN_MOTION_DOT":"0.00009559","MEAN_MOTION_DDOT":"0.0000000000000","SEMIMAJOR_AXIS":"7979.607","PERIOD":"118.231","APOAPSIS":"1760.234","PERIAPSIS":"1442.710","OBJECT_TYPE":"TBA","RCS_SIZE":null,"COUNTRY_CODE":null,"LAUNCH_DATE":null,"SITE":null,"DECAY_DATE":null,"FILE":"3136969","GP_ID":"185850258","TLE_LINE0":"0 TBA - TO BE ASSIGNED","TLE_LINE1":"1 T0287U          21273.06688179  .00009559  00000-0  89001-1 0  9994","TLE_LINE2":"2 T0287  82.4345 180.3731 0198960 349.5576  10.1384 12.17952909 66071"},{"CCSDS_OMM_VERS":"2.0","COMMENT":"GENERATED VIA SPACE-TRACK.ORG API","CREATION_DATE":"2021-10-01T18:05:37","ORIGINATOR":"18 SPCS","OBJECT_NAME":"TBA - TO BE ASSIGNED","OBJECT_ID":"","CENTER_NAME":"EARTH","REF_FRAME":"TEME","TIME_SYSTEM":"UTC","MEAN_ELEMENT_THEORY":"SGP4","EPOCH":"2021-09-30T18:06:12.055680","MEAN_MOTION":"12.98235057","ECCENTRICITY":"0.01878941","INCLINATION":"101.8277","RA_OF_ASC_NODE":"94.1886","ARG_OF_PERICENTER":"204.0529","MEAN_ANOMALY":"155.1705","EPHEMERIS_TYPE":"0","CLASSIFICATION_TYPE":"U","NORAD_CAT_ID":"270286","ELEMENT_SET_NO":"999","REV_AT_EPOCH":"7086","BSTAR":"0.00097209509000","MEAN_MOTION_DOT":"0.00000258","MEAN_MOTION_DDOT":"0.0000000000000","SEMIMAJOR_AXIS":"7647.150","PERIOD":"110.920","APOAPSIS":"1412.701","PERIAPSIS":"1125.330","OBJECT_TYPE":"TBA","RCS_SIZE":null,"COUNTRY_CODE":null,"LAUNCH_DATE":null,"SITE":null,"DECAY_DATE":null,"FILE":"3138865","GP_ID":"185915974","TLE_LINE0":"0 TBA - TO BE ASSIGNED","TLE_LINE1":"1 T0286U          21273.75430620  .00000258  00000-0  97210-3 0  9995","TLE_LINE2":"2 T0286 101.8277  94.1886 0187894 204.0529 155.1705 12.98235057 70866"},{"CCSDS_OMM_VERS":"2.0","COMMENT":"GENERATED VIA SPACE-TRACK.ORG API","CREATION_DATE":"2021-10-01T18:05:37","ORIGINATOR":"18 SPCS","OBJECT_NAME":"TBA - TO BE ASSIGNED","OBJECT_ID":"","CENTER_NAME":"EARTH","REF_FRAME":"TEME","TIME_SYSTEM":"UTC","MEAN_ELEMENT_THEORY":"SGP4","EPOCH":"2021-10-01T07:39:40.244256","MEAN_MOTION":"12.87973505","ECCENTRICITY":"0.07009227","INCLINATION":"99.3574","RA_OF_ASC_NODE":"120.4550","ARG_OF_PERICENTER":"227.2262","MEAN_ANOMALY":"126.7812","EPHEMERIS_TYPE":"0","CLASSIFICATION_TYPE":"U","NORAD_CAT_ID":"270285","ELEMENT_SET_NO":"999","REV_AT_EPOCH":"6962","BSTAR":"0.01311738700000","MEAN_MOTION_DOT":"0.00009886","MEAN_MOTION_DDOT":"0.0000000000000","SEMIMAJOR_AXIS":"7687.714","PERIOD":"111.804","APOAPSIS":"1848.428","PERIAPSIS":"770.730","OBJECT_TYPE":"TBA","RCS_SIZE":null,"COUNTRY_CODE":null,"LAUNCH_DATE":null,"SITE":null,"DECAY_DATE":null,"FILE":"3138865","GP_ID":"185915800","TLE_LINE0":"0 TBA - TO BE ASSIGNED","TLE_LINE1":"1 T0285U          21274.31921579  .00009886  00000-0  13117-1 0  9993","TLE_LINE2":"2 T0285  99.3574 120.4550 0700923 227.2262 126.7812 12.87973505 69622"},{"CCSDS_OMM_VERS":"2.0","COMMENT":"GENERATED VIA SPACE-TRACK.ORG API","CREATION_DATE":"2021-10-01T18:05:37","ORIGINATOR":"18 SPCS","OBJECT_NAME":"TBA - TO BE ASSIGNED","OBJECT_ID":"","CENTER_NAME":"EARTH","REF_FRAME":"TEME","TIME_SYSTEM":"UTC","MEAN_ELEMENT_THEORY":"SGP4","EPOCH":"2021-10-01T09:37:21.978048","MEAN_MOTION":"12.82922850","ECCENTRICITY":"0.02040401","INCLINATION":"82.7246","RA_OF_ASC_NODE":"308.7944","ARG_OF_PERICENTER":"302.3609","MEAN_ANOMALY":"55.7888","EPHEMERIS_TYPE":"0","CLASSIFICATION_TYPE":"U","NORAD_CAT_ID":"270284","ELEMENT_SET_NO":"999","REV_AT_EPOCH":"6976","BSTAR":"-0.00091331897000","MEAN_MOTION_DOT":"-0.00000227","MEAN_MOTION_DDOT":"0.0000000000000","SEMIMAJOR_AXIS":"7707.878","PERIOD":"112.244","APOAPSIS":"1487.014","PERIAPSIS":"1172.471","OBJECT_TYPE":"TBA","RCS_SIZE":null,"COUNTRY_CODE":null,"LAUNCH_DATE":null,"SITE":null,"DECAY_DATE":null,"FILE":"3138865","GP_ID":"185915858","TLE_LINE0":"0 TBA - TO BE ASSIGNED","TLE_LINE1":"1 T0284U          21274.40094882 -.00000227  00000-0 -91332-3 0  9999","TLE_LINE2":"2 T0284  82.7246 308.7944 0204040 302.3609  55.7888 12.82922850 69761"},{"CCSDS_OMM_VERS":"2.0","COMMENT":"GENERATED VIA SPACE-TRACK.ORG API","CREATION_DATE":"2021-10-01T18:05:37","ORIGINATOR":"18 SPCS","OBJECT_NAME":"TBA - TO BE ASSIGNED","OBJECT_ID":"","CENTER_NAME":"EARTH","REF_FRAME":"TEME","TIME_SYSTEM":"UTC","MEAN_ELEMENT_THEORY":"SGP4","EPOCH":"2021-09-30T10:46:01.359840","MEAN_MOTION":"12.18606215","ECCENTRICITY":"0.03675652","INCLINATION":"82.4180","RA_OF_ASC_NODE":"179.5743","ARG_OF_PERICENTER":"348.1910","MEAN_ANOMALY":"11.0705","EPHEMERIS_TYPE":"0","CLASSIFICATION_TYPE":"U","NORAD_CAT_ID":"270283","ELEMENT_SET_NO":"999","REV_AT_EPOCH":"6728","BSTAR":"-0.07037726300000","MEAN_MOTION_DOT":"-0.00008832","MEAN_MOTION_DDOT":"0.0000000000000","SEMIMAJOR_AXIS":"7976.755","PERIOD":"118.168","APOAPSIS":"1891.818","PERIAPSIS":"1305.422","OBJECT_TYPE":"TBA","RCS_SIZE":null,"COUNTRY_CODE":null,"LAUNCH_DATE":null,"SITE":null,"DECAY_DATE":null,"FILE":"3138865","GP_ID":"185915569","TLE_LINE0":"0 TBA - TO BE ASSIGNED","TLE_LINE1":"1 T0283U          21273.44862685 -.00008832  00000-0 -70377-1 0  9999","TLE_LINE2":"2 T0283  82.4180 179.5743 0367565 348.1910  11.0705 12.18606215 67281"},{"CCSDS_OMM_VERS":"2.0","COMMENT":"GENERATED VIA SPACE-TRACK.ORG API","CREATION_DATE":"2021-09-22T18:16:21","ORIGINATOR":"18 SPCS","OBJECT_NAME":"TBA - TO BE ASSIGNED","OBJECT_ID":"","CENTER_NAME":"EARTH","REF_FRAME":"TEME","TIME_SYSTEM":"UTC","MEAN_ELEMENT_THEORY":"SGP4","EPOCH":"2021-09-22T11:33:04.969728","MEAN_MOTION":"12.25062589","ECCENTRICITY":"0.04773235","INCLINATION":"82.7591","RA_OF_ASC_NODE":"354.6253","ARG_OF_PERICENTER":"87.0527","MEAN_ANOMALY":"278.5044","EPHEMERIS_TYPE":"0","CLASSIFICATION_TYPE":"U","NORAD_CAT_ID":"270282","ELEMENT_SET_NO":"999","REV_AT_EPOCH":"6882","BSTAR":"-0.00046431318000","MEAN_MOTION_DOT":"-0.00000060","MEAN_MOTION_DDOT":"0.0000000000000","SEMIMAJOR_AXIS":"7948.704","PERIOD":"117.545","APOAPSIS":"1949.979","PERIAPSIS":"1191.159","OBJECT_TYPE":"TBA","RCS_SIZE":null,"COUNTRY_CODE":null,"LAUNCH_DATE":null,"SITE":null,"DECAY_DATE":null,"FILE":"3123417","GP_ID":"185228140","TLE_LINE0":"0 TBA - TO BE ASSIGNED","TLE_LINE1":"1 T0282U          21265.48130752 -.00000060  00000-0 -46431-3 0  9997","TLE_LINE2":"2 T0282  82.7591 354.6253 0477324  87.0527 278.5044 12.25062589 68824"},{"CCSDS_OMM_VERS":"2.0","COMMENT":"GENERATED VIA SPACE-TRACK.ORG API","CREATION_DATE":"2021-10-01T18:05:37","ORIGINATOR":"18 SPCS","OBJECT_NAME":"TBA - TO BE ASSIGNED","OBJECT_ID":"","CENTER_NAME":"EARTH","REF_FRAME":"TEME","TIME_SYSTEM":"UTC","MEAN_ELEMENT_THEORY":"SGP4","EPOCH":"2021-10-01T10:13:10.339968","MEAN_MOTION":"12.28229295","ECCENTRICITY":"0.01470196","INCLINATION":"82.4894","RA_OF_ASC_NODE":"172.8943","ARG_OF_PERICENTER":"318.4968","MEAN_ANOMALY":"40.5013","EPHEMERIS_TYPE":"0","CLASSIFICATION_TYPE":"U","NORAD_CAT_ID":"270281","ELEMENT_SET_NO":"999","REV_AT_EPOCH":"6752","BSTAR":"-0.02170362700000","MEAN_MOTION_DOT":"-0.00002570","MEAN_MOTION_DDOT":"0.0000000000000","SEMIMAJOR_AXIS":"7935.035","PERIOD":"117.242","APOAPSIS":"1673.561","PERIAPSIS":"1440.240","OBJECT_TYPE":"TBA","RCS_SIZE":null,"COUNTRY_CODE":null,"LAUNCH_DATE":null,"SITE":null,"DECAY_DATE":null,"FILE":"3138865","GP_ID":"185915626","TLE_LINE0":"0 TBA - TO BE ASSIGNED","TLE_LINE1":"1 T0281U          21274.42581412 -.00002570  00000-0 -21704-1 0  9995","TLE_LINE2":"2 T0281  82.4894 172.8943 0147020 318.4968  40.5013 12.28229295 67520"},{"CCSDS_OMM_VERS":"2.0","COMMENT":"GENERATED VIA SPACE-TRACK.ORG API","CREATION_DATE":"2021-09-30T20:16:47","ORIGINATOR":"18 SPCS","OBJECT_NAME":"TBA - TO BE ASSIGNED","OBJECT_ID":"","CENTER_NAME":"EARTH","REF_FRAME":"TEME","TIME_SYSTEM":"UTC","MEAN_ELEMENT_THEORY":"SGP4","EPOCH":"2021-09-29T21:46:40.288800","MEAN_MOTION":"12.96430223","ECCENTRICITY":"0.00281573","INCLINATION":"90.2758","RA_OF_ASC_NODE":"327.9379","ARG_OF_PERICENTER":"212.0748","MEAN_ANOMALY":"147.8660","EPHEMERIS_TYPE":"0","CLASSIFICATION_TYPE":"U","NORAD_CAT_ID":"270280","ELEMENT_SET_NO":"999","REV_AT_EPOCH":"7164","BSTAR":"0.00125176410000","MEAN_MOTION_DOT":"0.00000366","MEAN_MOTION_DDOT":"0.0000000000000","SEMIMAJOR_AXIS":"7654.246","PERIOD":"111.074","APOAPSIS":"1297.663","PERIAPSIS":"1254.559","OBJECT_TYPE":"TBA","RCS_SIZE":null,"COUNTRY_CODE":null,"LAUNCH_DATE":null,"SITE":null,"DECAY_DATE":null,"FILE":"3136969","GP_ID":"185850373","TLE_LINE0":"0 TBA - TO BE ASSIGNED","TLE_LINE1":"1 T0280U          21272.90741075  .00000366  00000-0  12518-2 0  9991","TLE_LINE2":"2 T0280  90.2758 327.9379 0028157 212.0748 147.8660 12.96430223 71642"},{"CCSDS_OMM_VERS":"2.0","COMMENT":"GENERATED VIA SPACE-TRACK.ORG API","CREATION_DATE":"2021-10-01T18:05:37","ORIGINATOR":"18 SPCS","OBJECT_NAME":"TBA - TO BE ASSIGNED","OBJECT_ID":"","CENTER_NAME":"EARTH","REF_FRAME":"TEME","TIME_SYSTEM":"UTC","MEAN_ELEMENT_THEORY":"SGP4","EPOCH":"2021-10-01T09:39:15.138720","MEAN_MOTION":"12.93534316","ECCENTRICITY":"0.00245517","INCLINATION":"90.2685","RA_OF_ASC_NODE":"326.2181","ARG_OF_PERICENTER":"357.9693","MEAN_ANOMALY":"2.1322","EPHEMERIS_TYPE":"0","CLASSIFICATION_TYPE":"U","NORAD_CAT_ID":"270279","ELEMENT_SET_NO":"999","REV_AT_EPOCH":"7150","BSTAR":"-0.00127724180000","MEAN_MOTION_DOT":"-0.00000344","MEAN_MOTION_DDOT":"0.0000000000000","SEMIMAJOR_AXIS":"7665.666","PERIOD":"111.323","APOAPSIS":"1306.351","PERIAPSIS":"1268.710","OBJECT_TYPE":"TBA","RCS_SIZE":null,"COUNTRY_CODE":null,"LAUNCH_DATE":null,"SITE":null,"DECAY_DATE":null,"FILE":"3138865","GP_ID":"185915741","TLE_LINE0":"0 TBA - TO BE ASSIGNED","TLE_LINE1":"1 T0279U          21274.40225855 -.00000344  00000-0 -12772-2 0  9999","TLE_LINE2":"2 T0279  90.2685 326.2181 0024552 357.9693   2.1322 12.93534316 71503"}]